STARLINK-1540           
1 46051U 20055AA  24001.48071595  .00002329  00000+0  17521-3 0  9998
2 46051  53.0543  99.9190 0001274  72.3909 287.7219 15.06397143188214
STARLINK-1541           
1 46052U 20055AB  24001.46596428  .00000940  00000+0  81968-4 0  9998
2 46052  53.0536  99.9839 0001243  87.5878 272.5253 15.06395748188204
STARLINK-1543           
1 46053U 20055AC  24001.46964180  .00001214  00000+0  10039-3 0  9998
2 46053  53.0527  99.9667 0001327  92.4988 267.6153 15.06395389188209
STARLINK-1548           
1 46054U 20055AD  24001.47701834  .00000750  00000+0  69241-4 0  9999
2 46054  53.0550  99.9342 0001501 117.0878 243.0265 15.06402352188180
STARLINK-1554           
1 46055U 20055AE  24001.46225172  .00003671  00000+0  26509-3 0  9999
2 46055  53.0542 100.0020 0001263  83.7244 276.3888 15.06419092188189
STARLINK-1564           
1 46058U 20055AH  24001.49080741  .00000715  00000+0  66915-4 0  9998
2 46058  53.0539  99.8240 0001195  94.9344 265.1781 15.06397499188191
STARLINK-1570           
1 46059U 20055AJ  24001.50281616 -.00000867  00000+0 -39343-4 0  9990
2 46059  53.0541  99.8183 0001313  99.6361 260.4776 15.06393770188194
STARLINK-1572           
1 46060U 20055AK  24001.49912899 -.00000705  00000+0 -28432-4 0  9992
2 46060  53.0540  99.8345 0001316 108.2997 251.8135 15.06395473188195
STARLINK-1573           
1 46061U 20055AL  24001.49545082 -.00000042  00000+0  16064-4 0  9990
2 46061  53.0556  99.8852 0001390 114.8906 245.2227 15.06391632188193
STARLINK-1574           
1 46062U 20055AM  24001.45858475  .00001098  00000+0  92630-4 0  9994
2 46062  53.0543 100.0135 0001355  93.1049 267.0095 15.06397621188185
STARLINK-1577           
1 46063U 20055AN  24001.45491819  .00002858  00000+0  21073-3 0  9997
2 46063  53.0538 100.0350 0001339  67.0935 293.0195 15.06392716188185
STARLINK-1583           
1 46064U 20055AP  24001.48807275  .00000387  00000+0  44904-4 0  9992
2 46064  53.0542  99.8831 0001573 117.3854 242.7295 15.06396899188198
STARLINK-1525           
1 46066U 20055AR  24001.48623398  .00001109  00000+0  93356-4 0  9994
2 46066  53.0533  79.8920 0001377 106.2135 253.9005 15.06398744188462
STARLINK-1529           
1 46067U 20055AS  24001.42557312  .00003379  00000+0  32716-4 0  9995
2 46067  53.0568  52.3381 0001354  84.8054 275.3117 15.69728646188834
STARLINK-1532           
1 46068U 20055AT  24001.46416028  .00002384  00000+0  17893-3 0  9991
2 46068  53.0537  80.2990 0001615 114.5226 245.5932 15.06395367188452
STARLINK-1533           
1 46069U 20055AU  24001.44936889  .00000562  00000+0  56598-4 0  9994
2 46069  53.0532  80.0578 0001174  87.6757 272.4367 15.06398074188467
STARLINK-1536           
1 46070U 20055AV  24001.46317158  .00000532  00000+0  54628-4 0  9999
2 46070  53.0536  79.9858 0001397 100.0189 260.0958 15.06397657188462
STARLINK-1538           
1 46071U 20055AW  24001.48254519 -.00000241  00000+0  27263-5 0  9997
2 46071  53.0538  79.9079 0001416  94.5631 265.5520 15.06396498188468
STARLINK-1539           
1 46072U 20055AX  24001.44105865 -.00000860  00000+0 -38889-4 0  9996
2 46072  53.0538  80.0948 0001339  98.1299 261.9842 15.06393284188457
STARLINK-1542           
1 46073U 20055AY  24001.45673597 -.00001640  00000+0 -91146-4 0  9992
2 46073  53.0558  80.0160 0003485 157.4471 202.6672 15.06400845188467
STARLINK-1549           
1 46074U 20055AZ  24001.44199739 -.00001842  00000+0 -10480-3 0  9998
2 46074  53.0545  80.0845 0001601 121.2855 238.8291 15.06387932188466
STARLINK-1551           
1 46075U 20055BA  24001.46780077  .00001049  00000+0  89315-4 0  9993
2 46075  53.0535  79.9766 0001351  84.7211 275.3933 15.06398049188466
STARLINK-1552           
1 46076U 20055BB  24001.49360572  .00000012  00000+0  19710-4 0  9992
2 46076  53.0535  79.8602 0001322 101.3898 258.7239 15.06397296188467
STARLINK-1559           
1 46077U 20055BC  24001.47518012  .00000997  00000+0  85796-4 0  9994
2 46077  53.0552  79.9435 0001335  80.6871 279.4269 15.06395751188463
STARLINK-1563           
1 46078U 20055BD  24001.45306152  .00001617  00000+0  12746-3 0  9997
2 46078  53.0540  80.0426 0001513 120.8401 239.2737 15.06399139188466
STARLINK-1566           
1 46079U 20055BE  24001.18029426  .00000895  00000+0  78965-4 0  9997
2 46079  53.0536  81.2640 0001481  73.5944 286.5208 15.06400647188424
STARLINK-1568           
1 46080U 20055BF  24001.47668531  .00000695  00000+0  68196-4 0  9990
2 46080  53.0559  79.9909 0001576  91.7603 268.3566 15.04759889188464
STARLINK-1571           
1 46081U 20055BG  24001.50466566  .00001228  00000+0  10131-3 0  9997
2 46081  53.0543  79.8056 0001473 104.1573 255.9580 15.06395192188464
STARLINK-1578           
1 46082U 20055BH  24001.46042820 -.00002462  00000+0 -14648-3 0  9996
2 46082  53.0531  80.0073 0001569 131.8863 228.2260 15.06391261188461
STARLINK-1579           
1 46083U 20055BJ  24001.49728900 -.00000840  00000+0 -37532-4 0  9996
2 46083  53.0540  79.8417 0001526  99.6056 260.5105 15.06395088188466
STARLINK-1585           
1 46117U 20057A   23365.93334952  .00006891  00000+0  48119-3 0  9999
2 46117  53.0544 282.3746 0001140 105.8524 254.2591 15.06388655185958
STARLINK-1588           
1 46118U 20057B   24001.14159959  .00002592  00000+0  19281-3 0  9995
2 46118  53.0561 301.4364 0001593 103.4121 256.7045 15.06410094186366
STARLINK-1593           
1 46119U 20057C   24001.13699593 -.00001937  00000+0 -11648-3 0  9991
2 46119  53.0555 301.5313 0001409  82.8682 277.2467 15.04767162186368
STARLINK-1601           
1 46120U 20057D   24001.24848849 -.00000103  00000+0  11952-4 0  9997
2 46120  53.0547 300.9627 0001332 103.8132 256.3005 15.06390985186386
STARLINK-1602           
1 46121U 20057E   24001.15082344  .00012372  00000+0  84786-3 0  9992
2 46121  53.0534 281.3993 0001391  96.7929 263.3218 15.06406710186658
STARLINK-1604           
1 46122U 20057F   23365.89465345  .00000622  00000+0  60659-4 0  9991
2 46122  53.0530 262.5512 0001305 103.4712 256.6423 15.06399939186897
STARLINK-1605           
1 46123U 20057G   23365.87990737  .00005451  00000+0  38448-3 0  9993
2 46123  53.0534 262.6185 0001281  90.8349 269.2786 15.06406673187502
STARLINK-1614           
1 46124U 20057H   23365.88728100  .00001656  00000+0  13001-3 0  9999
2 46124  53.0536 262.5828 0001428  97.8679 262.2472 15.06408221186239
STARLINK-1618           
1 46125U 20057J   24001.13423562  .00012590  00000+0  86246-3 0  9990
2 46125  53.0549 301.4765 0001280  90.3151 269.7985 15.06404704186363
STARLINK-1619           
1 46126U 20057K   24001.06359859  .00011723  00000+0  76965-3 0  9994
2 46126  53.0551 301.3213 0001307 109.5848 250.5282 15.08049825186369
STARLINK-1621           
1 46127U 20057L   23365.10401634  .00000606  00000+0  59563-4 0  9995
2 46127  53.0535 286.0978 0001153 106.8538 253.2577 15.06390582186492
STARLINK-1622           
1 46128U 20057M   23365.92782647  .00007378  00000+0  51356-3 0  9996
2 46128  53.0532 262.4030 0001424  84.4598 275.6553 15.06406809186239
STARLINK-1623           
1 46129U 20057N   23365.90201929  .00004529  00000+0  32277-3 0  9990
2 46129  53.0535 262.5182 0001230  88.0578 272.0552 15.06395544186890
STARLINK-1624           
1 46130U 20057P   24001.13423149  .00002359  00000+0  17717-3 0  9996
2 46130  53.0535 261.4739 0001432 110.1278 249.9865 15.06402732186928
STARLINK-1625           
1 46131U 20057Q   24001.08079090  .00004987  00000+0  35345-3 0  9999
2 46131  53.0541 281.7186 0001297  95.7536 264.3601 15.06400343186634
STARLINK-1630           
1 46132U 20057R   24001.25218057  .00012600  00000+0  86291-3 0  9994
2 46132  53.0549 300.9462 0001235  92.8254 267.2876 15.06415372186387
STARLINK-1637           
1 46133U 20057S   24001.11949275  .00007832  00000+0  54399-3 0  9998
2 46133  53.0524 261.5377 0001467  90.7774 269.3383 15.06408821186926
STARLINK-1639           
1 46135U 20057U   24001.13791956  .00002906  00000+0  21382-3 0  9996
2 46135  53.0527 261.4595 0001373 105.6464 254.4677 15.06408947186920
STARLINK-1643           
1 46136U 20057V   24001.12410880  .00005532  00000+0  38994-3 0  9995
2 46136  53.0547 291.5593 0001592  85.8589 274.2582 15.06401353186508
STARLINK-1586           
1 46137U 20057W   24001.13976206  .00011531  00000+0  79136-3 0  9995
2 46137  53.0545 281.4509 0001333  94.4839 265.6302 15.06416797186657
STARLINK-1590           
1 46138U 20057X   24001.26965580  .00015341  00000+0  10376-2 0  9996
2 46138  53.0546 300.8595 0001705 112.2166 247.9004 15.06719628186386
STARLINK-1594           
1 46140U 20057Z   23365.89833993  .00002645  00000+0  19638-3 0  9996
2 46140  53.0527 262.5340 0001338  94.7036 265.4106 15.06401089187492
STARLINK-1596           
1 46141U 20057AA  24001.14160743  .00006317  00000+0  44251-3 0  9998
2 46141  53.0534 261.4395 0001269  94.5508 265.5626 15.06409314186928
STARLINK-1597           
1 46142U 20057AB  24001.22638193  .00009344  00000+0  64510-3 0  9990
2 46142  53.0541 301.0623 0001452  93.8377 266.2778 15.06414668186375
STARLINK-1606           
1 46144U 20057AD  23365.92598497  .00008291  00000+0  57477-3 0  9997
2 46144  53.0545 282.4103 0001328  84.4784 275.6357 15.06405416174203
STARLINK-1608           
1 46146U 20057AF  23365.83934946  .00018176  00000+0  12361-2 0  9997
2 46146  53.0555 302.7978 0001433  79.4695 280.6455 15.06396808185665
STARLINK-1611           
1 46147U 20057AG  24001.08631610  .00004414  00000+0  31496-3 0  9996
2 46147  53.0545 301.6881 0001394  80.5950 279.5196 15.06405352186350
STARLINK-1616           
1 46148U 20057AH  24001.15819885  .00009411  00000+0  64984-3 0  9997
2 46148  53.0535 281.3639 0001408  87.0688 273.0462 15.06401842186659
STARLINK-1620           
1 46149U 20057AJ  24001.17199921  .00011505  00000+0  78980-3 0  9990
2 46149  53.0533 281.2930 0001686  91.2350 268.8832 15.06409489186650
